NORAD_CAT_ID,OBJECT_NAME,OBJECT_TYPE,EPOCH,MEAN_MOTION,ECCENTRICITY,INCLINATION,RA_OF_ASC_NODE,ARG_OF_PERICENTER,MEAN_ANOMALY,BSTAR,MEAN_MOTION_DOT,MEAN_MOTION_DDOT,TLE_LINE0,TLE_LINE1,TLE_LINE2,SEMIMAJOR_AXIS,PERIOD,APOGEE,PERIGEE,DECAYED
56474.0,STARLINK-5524,PAYLOAD,2024-05-02 20:52:07,14.98324265,0.0002981,70.0006,28.6163,270.4346,89.6472,5.8397e-05,6.04e-06,0.0,0 STARLINK-5524,1 56474U 23064AC  24123.86953557  .00000604  00000-0  58397-4 0  9997,2 56474  70.0006  28.6163 0002981 270.4346  89.6472 14.98324265 54866,6950.211,96.107,574.147,570.004,0.0
56474.0,STARLINK-5524,PAYLOAD,2024-05-03 03:16:39,14.98338637,0.0002961,70.0016,27.9422,271.3351,88.7469,0.00018652,2.134e-05,0.0,0 STARLINK-5524,1 56474U 23064AC  24124.13656448  .00002134  00000-0  18652-3 0  9996,2 56474  70.0016  27.9422 0002961 271.3351  88.7469 14.98338637 54900,6950.166,96.106,574.089,569.973,0.0
56474.0,STARLINK-5524,PAYLOAD,2024-05-03 11:17:19,14.98326996,0.0003143,70.002,27.1008,268.8529,91.227,-0.00012115,-1.538e-05,0.0,0 STARLINK-5524,1 56474U 23064AC  24124.47036803 -.00001538  00000-0 -12115-3 0  9997,2 56474  70.0020  27.1008 0003143 268.8529  91.2270 14.98326996 54957,6950.202,96.107,574.252,569.883,0.0
56474.0,STARLINK-5524,PAYLOAD,2024-05-03 22:30:16,14.98321214,0.0002879,70.002,25.9226,267.92,92.163,-0.00016433,-2.053e-05,0.0,0 STARLINK-5524,1 56474U 23064AC  24124.93769545 -.00002053  00000-0 -16433-3 0  9994,2 56474  70.0020  25.9226 0002879 267.9200  92.1630 14.98321214 54662,6950.22,96.108,574.086,570.084,0.0
56474.0,STARLINK-5524,PAYLOAD,2024-05-04 03:18:41,14.98321289,0.0002963,70.0019,25.4175,266.8429,93.2391,-0.00019283,-2.392e-05,0.0,0 STARLINK-5524,1 56474U 23064AC  24125.13797649 -.00002392  00000-0 -19283-3 0  9995,2 56474  70.0019  25.4175 0002963 266.8429  93.2391 14.98321289 55055,6950.22,96.108,574.144,570.025,0.0
56474.0,STARLINK-5524,PAYLOAD,2024-05-05 03:20:42,14.98335238,0.0002905,70.0022,22.8932,268.7916,91.291,0.00036104,4.218e-05,0.0,0 STARLINK-5524,1 56474U 23064AC  24126.13937662  .00004218  00000-0  36104-3 0  9995,2 56474  70.0022  22.8932 0002905 268.7916  91.2910 14.98335238 55200,6950.177,96.107,574.061,570.023,0.0
56474.0,STARLINK-5524,PAYLOAD,2024-05-05 22:34:18,14.98351376,0.0003067,70.0027,20.8732,266.5724,93.5085,0.00082924,9.821e-05,0.0,0 STARLINK-5524,1 56474U 23064AC  24126.94049188  .00009821  00000-0  82924-3 0  9997,2 56474  70.0027  20.8732 0003067 266.5724  93.5085 14.98351376 54965,6950.127,96.106,574.123,569.86,0.0
56474.0,STARLINK-5524,PAYLOAD,2024-05-06 03:22:42,14.9836381,0.0003058,70.0028,20.3684,266.037,94.0439,0.0012035,0.00014309,0.0,0 STARLINK-5524,1 56474U 23064AC  24127.14076701  .00014309  00000-0  12035-2 0  9993,2 56474  70.0028  20.3684 0003058 266.0370  94.0439 14.98363810 55358,6950.088,96.105,574.079,569.828,0.0
56474.0,STARLINK-5524,PAYLOAD,2024-05-06 09:47:14,14.98347418,0.0002599,70.0036,19.6928,276.7441,83.3422,0.00069419,8.203e-05,0.0,0 STARLINK-5524,1 56474U 23064AC  24127.40780613  .00008203  00000-0  69419-3 0  9991,2 56474  70.0036  19.6928 0002599 276.7441  83.3422 14.98347418 55398,6950.139,96.106,573.81,570.198,0.0
56474.0,STARLINK-5524,PAYLOAD,2024-05-06 22:36:18,14.98346585,0.0002678,70.0038,18.349,264.3661,95.7193,0.00028813,3.348e-05,0.0,0 STARLINK-5524,1 56474U 23064AC  24127.94188416  .00003348  00000-0  28813-3 0  9991,2 56474  70.0038  18.3490 0002678 264.3661  95.7193 14.98346585 55111,6950.142,96.106,573.868,570.145,0.0
56474.0,STARLINK-5524,PAYLOAD,2024-05-07 03:24:42,14.98348257,0.0002899,70.0031,17.8443,267.2017,92.8811,0.00029995,3.489e-05,0.0,0 STARLINK-5524,1 56474U 23064AC  24128.14216185  .00003489  00000-0  29995-3 0  9997,2 56474  70.0031  17.8443 0002899 267.2017  92.8811 14.98348257 55504,6950.136,96.106,574.016,569.987,0.0
56474.0,STARLINK-5524,PAYLOAD,2024-05-07 09:49:15,14.98339374,0.0002449,70.0046,17.1693,273.8128,86.2751,-8.5389e-05,-1.112e-05,0.0,0 STARLINK-5524,1 56474U 23064AC  24128.40920404 -.00001112  00000-0 -85389-4 0  9995,2 56474  70.0046  17.1693 0002449 273.8128  86.2751 14.98339374 55541,6950.164,96.106,573.731,570.327,0.0
56474.0,STARLINK-5524,PAYLOAD,2024-05-07 21:02:12,14.98327703,0.0002802,70.0031,15.994,267.3025,92.7813,-0.00018653,-2.318e-05,0.0,0 STARLINK-5524,1 56474U 23064AC  24128.87652785 -.00002318  00000-0 -18653-3 0  9998,2 56474  70.0031  15.9940 0002802 267.3025  92.7813 14.98327703 55615,6950.2,96.107,574.012,570.118,0.0
56474.0,STARLINK-5524,PAYLOAD,2024-05-07 22:38:20,14.98325451,0.0003105,70.0021,15.8243,268.4107,91.6697,-0.00024411,-3.004e-05,0.0,0 STARLINK-5524,1 56474U 23064AC  24128.94328839 -.00003004  00000-0 -24411-3 0  9998,2 56474  70.0021  15.8243 0003105 268.4107  91.6697 14.98325451 55266,6950.207,96.107,574.23,569.914,0.0
56474.0,STARLINK-5524,PAYLOAD,2024-05-08 09:51:16,14.98332493,0.0002929,70.0022,14.6455,271.445,88.6374,-4.4757e-05,-6.27e-06,0.0,0 STARLINK-5524,1 56474U 23064AC  24129.41060890 -.00000627  00000-0 -44757-4 0  9995,2 56474  70.0022  14.6455 0002929 271.4450  88.6374 14.98332493 55337,6950.185,96.107,574.086,570.014,0.0
56474.0,STARLINK-5524,PAYLOAD,2024-05-08 21:04:12,14.98335732,0.0003059,70.0023,13.4679,271.9917,88.0892,0.00031593,3.679e-05,0.0,0 STARLINK-5524,1 56474U 23064AC  24129.87792816  .00003679  00000-0  31593-3 0  9996,2 56474  70.0023  13.4679 0003059 271.9917  88.0892 14.98335732 55766,6950.175,96.107,574.166,569.914,0.0
56474.0,STARLINK-5524,PAYLOAD,2024-05-08 22:40:20,14.98340725,0.0003112,70.0019,13.2992,271.7151,88.3652,0.0004385,5.144e-05,0.0,0 STARLINK-5524,1 56474U 23064AC  24129.94468632  .00005144  00000-0  43850-3 0  9998,2 56474  70.0019  13.2992 0003112 271.7151  88.3652 14.98340725 55412,6950.16,96.106,574.188,569.862,0.0
56474.0,STARLINK-5524,PAYLOAD,2024-05-09 09:53:17,14.98340927,0.0003065,70.0021,12.1206,272.0031,88.0777,0.00066447,7.847e-05,0.0,0 STARLINK-5524,1 56474U 23064AC  24130.41200767  .00007847  00000-0  66447-3 0  9994,2 56474  70.0021  12.1206 0003065 272.0031  88.0777 14.98340927 55485,6950.159,96.106,574.154,569.894,0.0
56474.0,STARLINK-5524,PAYLOAD,2024-05-09 21:06:13,14.98341617,0.0003043,70.0021,10.9428,272.1552,87.9259,0.00051937,6.111e-05,0.0,0 STARLINK-5524,1 56474U 23064AC  24130.87932690  .00006111  00000-0  51937-3 0  9992,2 56474  70.0021  10.9428 0003043 272.1552  87.9259 14.98341617 55910,6950.157,96.106,574.137,569.907,0.0
56474.0,STARLINK-5524,PAYLOAD,2024-05-09 22:42:21,14.98343033,0.0003025,70.002,10.7742,271.7274,88.3539,0.00053532,6.302e-05,0.0,0 STARLINK-5524,1 56474U 23064AC  24130.94608610  .00006302  00000-0  53532-3 0  9997,2 56474  70.0020  10.7742 0003025 271.7274  88.3539 14.98343033 55563,6950.153,96.106,574.12,569.915,0.0
56474.0,STARLINK-5524,PAYLOAD,2024-05-10 01:54:37,14.98349907,0.0003011,70.002,10.4376,271.636,88.4454,0.00069805,8.25e-05,0.0,0 STARLINK-5524,1 56474U 23064AC  24131.07960322  .00008250  00000-0  69805-3 0  9997,2 56474  70.0020  10.4376 0003011 271.6360  88.4454 14.98349907 55588,6950.131,96.106,574.089,569.904,0.0
56474.0,STARLINK-5524,PAYLOAD,2024-05-10 21:08:14,14.98340463,0.0002647,70.0029,8.4185,265.4013,94.6844,0.00023706,2.737e-05,0.0,0 STARLINK-5524,1 56474U 23064AC  24131.88072333  .00002737  00000-0  23706-3 0  9996,2 56474  70.0029   8.4185 0002647 265.4013  94.6844 14.98340463 56066,6950.161,96.106,573.865,570.186,0.0
56474.0,STARLINK-5524,PAYLOAD,2024-05-10 22:44:22,14.98338738,0.000261,70.0027,8.2505,262.4483,97.6379,0.00018222,2.082e-05,0.0,0 STARLINK-5524,1 56474U 23064AC  24131.94748321  .00002082  00000-0  18222-3 0  9990,2 56474  70.0027   8.2505 0002610 262.4483  97.6379 14.98338738 55715,6950.166,96.106,573.845,570.217,0.0
56474.0,STARLINK-5524,PAYLOAD,2024-05-11 01:56:38,14.98358672,0.0002947,70.0024,7.9146,257.0332,103.0498,0.000636,7.509e-05,0.0,0 STARLINK-5524,1 56474U 23064AC  24132.08099902  .00007509  00000-0  63600-3 0  9999,2 56474  70.0024   7.9146 0002947 257.0332 103.0498 14.98358672 56090,6950.104,96.105,574.017,569.921,0.0
56474.0,STARLINK-5524,PAYLOAD,2024-05-11 19:34:05,14.9833038,0.000211,70.0024,6.0619,254.9805,105.1121,-0.0011619,-0.00013928,0.0,0 STARLINK-5524,1 56474U 23064AC  24132.81534327 -.00013928  00000-0 -11619-2 0  9991,2 56474  70.0024   6.0619 0002110 254.9805 105.1121 14.98330380 56203,6950.192,96.107,573.523,570.59,0.0
56474.0,STARLINK-5524,PAYLOAD,2024-05-11 22:46:22,14.98305241,0.0002172,70.0031,5.7268,263.4843,96.6068,-0.0019199,-0.0002291,0.0,0 STARLINK-5524,1 56474U 23064AC  24132.94887250 -.00022910  00000-0 -19199-2 0  9993,2 56474  70.0031   5.7268 0002172 263.4843  96.6068 14.98305241 55865,6950.269,96.109,573.644,570.625,0.0
56474.0,STARLINK-5524,PAYLOAD,2024-05-12 01:58:39,14.98276511,0.0002,70.0027,5.3891,279.053,81.0403,-0.0027502,-0.00032708,0.0,0 STARLINK-5524,1 56474U 23064AC  24133.08240350 -.00032708  00000-0 -27502-2 0  9996,2 56474  70.0027   5.3891 0002000 279.0530  81.0403 14.98276511 56245,6950.358,96.11,573.613,570.833,0.0
56474.0,STARLINK-5524,PAYLOAD,2024-05-12 21:12:19,14.98297189,0.0003154,70.001,3.3666,266.7514,93.3284,0.00061072,7.195e-05,0.0,0 STARLINK-5524,1 56474U 23064AC  24133.88355442  .00007195  00000-0  61072-3 0  9994,2 56474  70.0010   3.3666 0003154 266.7514  93.3284 14.98297189 56361,6950.294,96.109,574.351,569.967,0.0
56474.0,STARLINK-5524,PAYLOAD,2024-05-12 22:48:27,14.98297622,0.0002989,70.0014,3.1978,267.3313,92.7504,0.00080461,9.513e-05,0.0,0 STARLINK-5524,1 56474U 23064AC  24133.95031675  .00009513  00000-0  80461-3 0  9990,2 56474  70.0014   3.1978 0002989 267.3313  92.7504 14.98297622 56010,6950.293,96.109,574.235,570.081,0.0
56474.0,STARLINK-5524,PAYLOAD,2024-05-13 14:49:48,14.98318943,0.0003199,70.001,1.5142,264.5188,95.5606,0.0019282,0.00022983,0.0,0 STARLINK-5524,1 56474U 23064AC  24134.61792766  .00022983  00000-0  19282-2 0  9997,2 56474  70.0010   1.5142 0003199 264.5188  95.5606 14.98318943 56119,6950.227,96.108,574.315,569.869,0.0
